[{"OBJECT_NAME":"STARLINK-31898","OBJECT_ID":"2024-100W","EPOCH":"2026-03-09T05:05:54.486816","MEAN_MOTION":15.27580842,"ECCENTRICITY":0.00013804,"INCLINATION":43.003,"RA_OF_ASC_NODE":124.655,"ARG_OF_PERICENTER":267.8418,"MEAN_ANOMALY":92.2276,"EPHEMERIS_TYPE":0,"CLASSIFICATION_TYPE":"U","NORAD_CAT_ID":59905,"ELEMENT_SET_NO":999,"REV_AT_EPOCH":10111,"BSTAR":8.4768829e-5,"MEAN_MOTION_DOT":2.071e-5,"MEAN_MOTION_DDOT":0},{"OBJECT_NAME":"OBJECT H","OBJECT_ID":"2025-155H","EPOCH":"2026-03-09T22:09:58.611456","MEAN_MOTION":15.27590961,"ECCENTRICITY":0.00081993,"INCLINATION":97.4482,"RA_OF_ASC_NODE":37.3122,"ARG_OF_PERICENTER":152.0629,"MEAN_ANOMALY":208.1051,"EPHEMERIS_TYPE":0,"CLASSIFICATION_TYPE":"U","NORAD_CAT_ID":64883,"ELEMENT_SET_NO":999,"REV_AT_EPOCH":6559,"BSTAR":0.00050403256,"MEAN_MOTION_DOT":0.00013547,"MEAN_MOTION_DDOT":0}]
